IRIDIUM 155             
1 43573U 18061E   23105.25599912  .00000411  00000+0  13980-3 0  9990
2 43573  86.4033 181.0289 0002215 103.6721 256.4722 14.34218441247246
IRIDIUM 154             
1 43574U 18061F   23105.58581417  .00000352  00000+0  11860-3 0  9997
2 43574  86.4039 180.9684 0002175  90.6732 269.4713 14.34219380247340
IRIDIUM 163             
1 43575U 18061G   23105.56679553  .00000455  00000+0  15534-3 0  9991
2 43575  86.4035 180.9278 0002355  92.2434 267.9031 14.34218139247317
IRIDIUM 156             
1 43576U 18061H   23105.26234461  .00000407  00000+0  13810-3 0  9996
2 43576  86.4036 181.0605 0002454  98.8926 261.2547 14.34219866247264
IRIDIUM 164             
1 43577U 18061J   23105.59215619  .00000445  00000+0  15169-3 0  9998
2 43577  86.4037 180.9455 0002341  91.4439 268.7025 14.34220891247353
IRIDIUM 159             
1 43578U 18061K   23105.28137192  .00000422  00000+0  14347-3 0  9996
2 43578  86.4036 181.0364 0002103  96.7743 263.3692 14.34217894247277
IRIDIUM 180             
1 43922U 19002A   23105.55995071  .00000237  00000+0  77598-4 0  9995
2 43922  86.3923 117.8575 0002326  87.2087 272.9375 14.34218993222928
IRIDIUM 176             
1 43923U 19002B   23105.51357498  .00000711  00000+0  10886-3 0  9990
2 43923  86.6056 117.9180 0002551  97.4538 262.6969 14.72248935228771
IRIDIUM 168             
1 43924U 19002C   23105.55361591  .00000230  00000+0  75097-4 0  9996
2 43924  86.3924 117.9047 0002201  88.2570 271.8878 14.34218880222905
IRIDIUM 173             
1 43925U 19002D   23105.54092505  .00000246  00000+0  80664-4 0  9995
2 43925  86.3922 117.8464 0002263  86.0522 274.0933 14.34219489222887
IRIDIUM 169             
1 43926U 19002E   23105.59219504  .00000533  00000+0  16763-3 0  9998
2 43926  86.4237 149.4231 0003849 164.1846 195.9473 14.38614952223653
IRIDIUM 172             
1 43927U 19002F   23105.53458630  .00000240  00000+0  78623-4 0  9997
2 43927  86.3921 117.8534 0002228  89.3683 270.7768 14.34218136222899
IRIDIUM 175             
1 43928U 19002G   23105.57499158  .00000268  00000+0  38452-4 0  9998
2 43928  86.1468 115.2455 0002470  93.1696 266.9803 14.72237920228778
IRIDIUM 171             
1 43929U 19002H   23105.58532171  .00000242  00000+0  79265-4 0  9992
2 43929  86.3931 118.0099 0002234  86.6378 273.5074 14.34219540222890
IRIDIUM 170             
1 43930U 19002J   23105.51972735  .00000709  00000+0  10855-3 0  9998
2 43930  86.6056 117.9204 0002475  94.8495 265.3005 14.72250656228789
IRIDIUM 167             
1 43931U 19002K   23105.57896887  .00000224  00000+0  72804-4 0  9993
2 43931  86.3922 117.8470 0002304  84.3208 275.8251 14.34216905222892
